GLOBALSTAR M063         
1 26081U 00008A   24280.87585744 -.00000011  00000+0  10471-2 0  9996
2 26081  51.9961  58.6949 0004916 177.0647 352.0831 11.86160675127512
GLOBALSTAR M062         
1 26082U 00008B   24280.82660892  .00000052  00000+0  10729-2 0  9990
2 26082  51.9826 120.8300 0006213 296.0902  77.1082 12.43449986465106
GLOBALSTAR M060         
1 26083U 00008C   24280.64949248  .00000035  00000+0  12568-2 0  9990
2 26083  52.0036  45.4865 0002765 340.3389  32.7280 12.17645506121484
GLOBALSTAR M064         
1 26084U 00008D   24280.91891387 -.00000035  00000+0  68775-3 0  9994
2 26084  52.0015 160.4000 0001091 323.9581  36.1178 11.88523634136982
GLOBALSTAR M065         
1 31571U 07020A   24280.92879808  .00000001  00000+0  58848-3 0  9999
2 31571  51.9883 277.0920 0010211 104.0997 264.3972 12.61980821801432
GLOBALSTAR M071         
1 31576U 07020F   24280.84668045 -.00000023  00000+0  45170-3 0  9993
2 31576  52.0052 238.2807 0000895 332.1158  46.4226 12.62258810463746
